STARLINK-31798          
1 59635U 24082E   26068.26914961 -.00002532  00000+0 -82554-4 0  9995
2 59635  43.0027 142.5253 0001021 256.0206 104.0533 15.27569587104740
TEVEL2-3                
1 63218U 25052J   26068.64540225  .00020365  00000+0  69446-3 0  9991
2 63218  97.3994 324.7775 0004761 105.7353 254.4413 15.30377031 54855
